{
  "type": "FeatureCollection",
  "features": [
    {
      "type": "Feature",
      "properties": {
        "norad_id": 41877,
        "name": "RESOURCESAT-2A",
        "group": "resource",
        "lat": -11.68353267441325,
        "lon": -127.05914920878533,
        "alt_km": 824.0509728342349,
        "timestamp": "2025-12-10T21:43:21.744000+00:00",
        "meta_object_name": "RESOURCESAT-2A",
        "meta_object_id": "2016-074A",
        "meta_epoch": "2025-12-10T15:45:21.752064",
        "meta_mean_motion": 14.21598837,
        "meta_eccentricity": 0.0001119,
        "meta_inclination": 98.7754,
        "meta_ra_of_asc_node": 54.5242,
        "meta_arg_of_pericenter": 267.7972,
        "meta_mean_anomaly": 92.3077,
        "meta_ephemeris_type": 0,
        "meta_classification_type": "U",
        "meta_norad_cat_id": 41877,
        "meta_element_set_no": 999,
        "meta_rev_at_epoch": 46751,
        "meta_bstar": 0.00018890199,
        "meta_mean_motion_dot": 3.7e-06,
        "meta_mean_motion_ddot": 0,
        "tle_line1": "1 41877U 16074A   25344.65650176  .00000370  00000+0  18890-3 0  9997",
        "tle_line2": "2 41877  98.7754  54.5242 0001119 267.7972  92.3077 14.21598837467512"
      },
      "geometry": {
        "type": "Point",
        "coordinates": [
          -127.05914920878533,
          -11.68353267441325
        ]
      }
    },
    {
      "type": "Feature",
      "properties": {
        "norad_id": 41948,
        "name": "CARTOSAT-2D",
        "group": "resource",
        "lat": -81.41666433242487,
        "lon": 102.37843355776857,
        "alt_km": 516.4158039024969,
        "timestamp": "2025-12-10T21:43:21.744011+00:00",
        "meta_object_name": "CARTOSAT-2D",
        "meta_object_id": "2017-008A",
        "meta_epoch": "2025-12-10T14:11:45.727008",
        "meta_mean_motion": 15.19224509,
        "meta_eccentricity": 0.00043901,
        "meta_inclination": 97.4383,
        "meta_ra_of_asc_node": 42.1214,
        "meta_arg_of_pericenter": 168.3681,
        "meta_mean_anomaly": 191.7656,
        "meta_ephemeris_type": 0,
        "meta_classification_type": "U",
        "meta_norad_cat_id": 41948,
        "meta_element_set_no": 999,
        "meta_rev_at_epoch": 48894,
        "meta_bstar": 0.00045959232,
        "meta_mean_motion_dot": 9.619e-05,
        "meta_mean_motion_ddot": 0,
        "tle_line1": "1 41948U 17008A   25344.59150147  .00009619  00000+0  45959-3 0  9991",
        "tle_line2": "2 41948  97.4383  42.1214 0004390 168.3681 191.7656 15.19224509488941"
      },
      "geometry": {
        "type": "Point",
        "coordinates": [
          102.37843355776857,
          -81.41666433242487
        ]
      }
    },
    {
      "type": "Feature",
      "properties": {
        "norad_id": 42063,
        "name": "SENTINEL-2B",
        "group": "resource",
        "lat": 77.18817470366623,
        "lon": -81.07864608143328,
        "alt_km": 780.9080329523113,
        "timestamp": "2025-12-10T21:43:21.744033+00:00",
        "meta_object_name": "SENTINEL-2B",
        "meta_object_id": "2017-013A",
        "meta_epoch": "2025-12-10T14:32:45.589344",
        "meta_mean_motion": 14.30815797,
        "meta_eccentricity": 0.00011522,
        "meta_inclination": 98.5713,
        "meta_ra_of_asc_node": 57.0818,
        "meta_arg_of_pericenter": 92.3816,
        "meta_mean_anomaly": 267.7499,
        "meta_ephemeris_type": 0,
        "meta_classification_type": "U",
        "meta_norad_cat_id": 42063,
        "meta_element_set_no": 999,
        "meta_rev_at_epoch": 45767,
        "meta_bstar": 0.00022242513,
        "meta_mean_motion_dot": 5.39e-06,
        "meta_mean_motion_ddot": 0,
        "tle_line1": "1 42063U 17013A   25344.60608321  .00000539  00000+0  22243-3 0  9993",
        "tle_line2": "2 42063  98.5713  57.0818 0001152  92.3816 267.7499 14.30815797457675"
      },
      "geometry": {
        "type": "Point",
        "coordinates": [
          -81.07864608143328,
          77.18817470366623
        ]
      }
    },
    {
      "type": "Feature",
      "properties": {
        "norad_id": 42767,
        "name": "CARTOSAT-2E",
        "group": "resource",
        "lat": -5.312933708899538,
        "lon": -138.1822727271828,
        "alt_km": 510.9432956444216,
        "timestamp": "2025-12-10T21:43:21.744044+00:00",
        "meta_object_name": "CARTOSAT-2E",
        "meta_object_id": "2017-036C",
        "meta_epoch": "2025-12-10T14:35:13.055136",
        "meta_mean_motion": 15.19290458,
        "meta_eccentricity": 0.00022546,
        "meta_inclination": 97.4552,
        "meta_ra_of_asc_node": 42.222,
        "meta_arg_of_pericenter": 246.2955,
        "meta_mean_anomaly": 113.8043,
        "meta_ephemeris_type": 0,
        "meta_classification_type": "U",
        "meta_norad_cat_id": 42767,
        "meta_element_set_no": 999,
        "meta_rev_at_epoch": 46951,
        "meta_bstar": 0.00046855822,
        "meta_mean_motion_dot": 9.825e-05,
        "meta_mean_motion_ddot": 0,
        "tle_line1": "1 42767U 17036C   25344.60778999  .00009825  00000+0  46856-3 0  9991",
        "tle_line2": "2 42767  97.4552  42.2220 0002254 246.2955 113.8043 15.19290458469517"
      },
      "geometry": {
        "type": "Point",
        "coordinates": [
          -138.1822727271828,
          -5.312933708899538
        ]
      }
    },
    {
      "type": "Feature",
      "properties": {
        "norad_id": 42920,
        "name": "FORMOSAT-5",
        "group": "resource",
        "lat": -31.18747301077307,
        "lon": 64.29606413841516,
        "alt_km": 722.0667310806057,
        "timestamp": "2025-12-10T21:43:21.744056+00:00",
        "meta_object_name": "FORMOSAT-5",
        "meta_object_id": "2017-049A",
        "meta_epoch": "2025-12-10T15:14:51.366336",
        "meta_mean_motion": 14.51003535,
        "meta_eccentricity": 0.00099609,
        "meta_inclination": 98.2454,
        "meta_ra_of_asc_node": 58.996,
        "meta_arg_of_pericenter": 302.6985,
        "meta_mean_anomaly": 57.3248,
        "meta_ephemeris_type": 0,
        "meta_classification_type": "U",
        "meta_norad_cat_id": 42920,
        "meta_element_set_no": 999,
        "meta_rev_at_epoch": 43933,
        "meta_bstar": 0.00011551196,
        "meta_mean_motion_dot": 4.13e-06,
        "meta_mean_motion_ddot": 0,
        "tle_line1": "1 42920U 17049A   25344.63531674  .00000413  00000+0  11551-3 0  9994",
        "tle_line2": "2 42920  98.2454  58.9960 0009960 302.6985  57.3248 14.51003535439333"
      },
      "geometry": {
        "type": "Point",
        "coordinates": [
          64.29606413841516,
          -31.18747301077307
        ]
      }
    },
    {
      "type": "Feature",
      "properties": {
        "norad_id": 42969,
        "name": "SENTINEL-5P",
        "group": "resource",
        "lat": -31.31749761751906,
        "lon": 98.11103930257721,
        "alt_km": 833.3587517672968,
        "timestamp": "2025-12-10T21:43:21.744067+00:00",
        "meta_object_name": "SENTINEL-5P",
        "meta_object_id": "2017-064A",
        "meta_epoch": "2025-12-10T13:57:44.046720",
        "meta_mean_motion": 14.1951665,
        "meta_eccentricity": 9.627e-05,
        "meta_inclination": 98.7782,
        "meta_ra_of_asc_node": 283.1851,
        "meta_arg_of_pericenter": 87.8705,
        "meta_mean_anomaly": 272.2581,
        "meta_ephemeris_type": 0,
        "meta_classification_type": "U",
        "meta_norad_cat_id": 42969,
        "meta_element_set_no": 999,
        "meta_rev_at_epoch": 42280,
        "meta_bstar": 0.0001028716,
        "meta_mean_motion_dot": 1.73e-06,
        "meta_mean_motion_ddot": 0,
        "tle_line1": "1 42969U 17064A   25344.58175980  .00000173  00000+0  10287-3 0  9990",
        "tle_line2": "2 42969  98.7782 283.1851 0000962  87.8705 272.2581 14.19516650422804"
      },
      "geometry": {
        "type": "Point",
        "coordinates": [
          98.11103930257721,
          -31.31749761751906
        ]
      }
    },
    {
      "type": "Feature",
      "properties": {
        "norad_id": 42987,
        "name": "SKYSAT-C11",
        "group": "resource",
        "lat": -22.041067322684665,
        "lon": -60.67071910602973,
        "alt_km": 430.14379718685905,
        "timestamp": "2025-12-10T21:43:21.744077+00:00",
        "meta_object_name": "SKYSAT-C11",
        "meta_object_id": "2017-068A",
        "meta_epoch": "2025-12-10T08:26:06.487872",
        "meta_mean_motion": 15.47287048,
        "meta_eccentricity": 9.342e-05,
        "meta_inclination": 97.4145,
        "meta_ra_of_asc_node": 121.7844,
        "meta_arg_of_pericenter": 105.0935,
        "meta_mean_anomaly": 255.0418,
        "meta_ephemeris_type": 0,
        "meta_classification_type": "U",
        "meta_norad_cat_id": 42987,
        "meta_element_set_no": 999,
        "meta_rev_at_epoch": 45394,
        "meta_bstar": 0.00062243654,
        "meta_mean_motion_dot": 0.00031727,
        "meta_mean_motion_ddot": 0,
        "tle_line1": "1 42987U 17068A   25344.35146398  .00031727  00000+0  62244-3 0  9999",
        "tle_line2": "2 42987  97.4145 121.7844 0000934 105.0935 255.0418 15.47287048453944"
      },
      "geometry": {
        "type": "Point",
        "coordinates": [
          -60.67071910602973,
          -22.041067322684665
        ]
      }
    }
  ]
}